CCSDS_OMM_VERS = 2.0
CREATION_DATE  = 
ORIGINATOR     = 

OBJECT_NAME    = COSMOS 2151
OBJECT_ID      = 1991-042A
CENTER_NAME    = EARTH
REF_FRAME      = TEME
TIME_SYSTEM    = UTC
MEAN_ELEMENT_THEORY = SGP/SGP4

EPOCH          = 2025-11-29T03:28:44.963040
MEAN_MOTION    = 14.99610842
ECCENTRICITY   = .0013695
INCLINATION    = 82.4966
RA_OF_ASC_NODE = 180.6030
ARG_OF_PERICENTER = 43.5253
MEAN_ANOMALY   = 316.7049

EPHEMERIS_TYPE = 0
CLASSIFICATION_TYPE = U
NORAD_CAT_ID   = 21422
ELEMENT_SET_NO = 999
REV_AT_EPOCH   = 84812
BSTAR          = .15371E-3
MEAN_MOTION_DOT = .1921E-4
MEAN_MOTION_DDOT = 0

CCSDS_OMM_VERS = 2.0
CREATION_DATE  = 
ORIGINATOR     = 

OBJECT_NAME    = SL-14 R/B
OBJECT_ID      = 1991-042B
CENTER_NAME    = EARTH
REF_FRAME      = TEME
TIME_SYSTEM    = UTC
MEAN_ELEMENT_THEORY = SGP/SGP4

EPOCH          = 2025-11-29T05:00:04.241088
MEAN_MOTION    = 14.81719050
ECCENTRICITY   = .0016264
INCLINATION    = 82.4916
RA_OF_ASC_NODE = 314.4134
ARG_OF_PERICENTER = 206.5941
MEAN_ANOMALY   = 153.4441

EPHEMERIS_TYPE = 0
CLASSIFICATION_TYPE = U
NORAD_CAT_ID   = 21423
ELEMENT_SET_NO = 999
REV_AT_EPOCH   = 83819
BSTAR          = .62199E-4
MEAN_MOTION_DOT = .514E-5
MEAN_MOTION_DDOT = 0

CCSDS_OMM_VERS = 2.0
CREATION_DATE  = 
ORIGINATOR     = 

OBJECT_NAME    = ERS-1
OBJECT_ID      = 1991-050A
CENTER_NAME    = EARTH
REF_FRAME      = TEME
TIME_SYSTEM    = UTC
MEAN_ELEMENT_THEORY = SGP/SGP4

EPOCH          = 2025-11-29T01:01:01.864416
MEAN_MOTION    = 14.39348143
ECCENTRICITY   = .0032698
INCLINATION    = 98.7914
RA_OF_ASC_NODE = 343.7545
ARG_OF_PERICENTER = 139.5064
MEAN_ANOMALY   = 220.8564

EPHEMERIS_TYPE = 0
CLASSIFICATION_TYPE = U
NORAD_CAT_ID   = 21574
ELEMENT_SET_NO = 999
REV_AT_EPOCH   = 80125
BSTAR          = .12722E-3
MEAN_MOTION_DOT = .352E-5
MEAN_MOTION_DDOT = 0

CCSDS_OMM_VERS = 2.0
CREATION_DATE  = 
ORIGINATOR     = 

OBJECT_NAME    = ARIANE 40 R/B
OBJECT_ID      = 1991-050F
CENTER_NAME    = EARTH
REF_FRAME      = TEME
TIME_SYSTEM    = UTC
MEAN_ELEMENT_THEORY = SGP/SGP4

EPOCH          = 2025-11-29T02:59:21.418944
MEAN_MOTION    = 14.42795384
ECCENTRICITY   = .0003605
INCLINATION    = 98.2185
RA_OF_ASC_NODE = 24.0454
ARG_OF_PERICENTER = 38.4473
MEAN_ANOMALY   = 321.6974

EPHEMERIS_TYPE = 0
CLASSIFICATION_TYPE = U
NORAD_CAT_ID   = 21610
ELEMENT_SET_NO = 999
REV_AT_EPOCH   = 80449
BSTAR          = .13063E-3
MEAN_MOTION_DOT = .394E-5
MEAN_MOTION_DDOT = 0

CCSDS_OMM_VERS = 2.0
CREATION_DATE  = 
ORIGINATOR     = 

OBJECT_NAME    = INTERCOSMOS 25
OBJECT_ID      = 1991-086A
CENTER_NAME    = EARTH
REF_FRAME      = TEME
TIME_SYSTEM    = UTC
MEAN_ELEMENT_THEORY = SGP/SGP4

EPOCH          = 2025-11-29T02:17:16.573344
MEAN_MOTION    = 12.11652005
ECCENTRICITY   = .1487346
INCLINATION    = 82.6067
RA_OF_ASC_NODE = 10.8271
ARG_OF_PERICENTER = 333.8234
MEAN_ANOMALY   = 19.4420

EPHEMERIS_TYPE = 0
CLASSIFICATION_TYPE = U
NORAD_CAT_ID   = 21819
ELEMENT_SET_NO = 999
REV_AT_EPOCH   = 48450
BSTAR          = .35462E-3
MEAN_MOTION_DOT = .1795E-4
MEAN_MOTION_DDOT = 0

CCSDS_OMM_VERS = 2.0
CREATION_DATE  = 
ORIGINATOR     = 

OBJECT_NAME    = SL-8 R/B
OBJECT_ID      = 1992-008B
CENTER_NAME    = EARTH
REF_FRAME      = TEME
TIME_SYSTEM    = UTC
MEAN_ELEMENT_THEORY = SGP/SGP4

EPOCH          = 2025-11-29T03:43:53.973120
MEAN_MOTION    = 13.75954435
ECCENTRICITY   = .0035862
INCLINATION    = 82.9264
RA_OF_ASC_NODE = 342.5518
ARG_OF_PERICENTER = 56.8858
MEAN_ANOMALY   = 12.3749

EPHEMERIS_TYPE = 0
CLASSIFICATION_TYPE = U
NORAD_CAT_ID   = 21876
ELEMENT_SET_NO = 999
REV_AT_EPOCH   = 69559
BSTAR          = .13591E-3
MEAN_MOTION_DOT = .148E-5
MEAN_MOTION_DDOT = 0

CCSDS_OMM_VERS = 2.0
CREATION_DATE  = 
ORIGINATOR     = 

OBJECT_NAME    = SL-8 R/B
OBJECT_ID      = 1992-020B
CENTER_NAME    = EARTH
REF_FRAME      = TEME
TIME_SYSTEM    = UTC
MEAN_ELEMENT_THEORY = SGP/SGP4

EPOCH          = 2025-11-29T04:16:19.708032
MEAN_MOTION    = 13.75524295
ECCENTRICITY   = .0028074
INCLINATION    = 82.9315
RA_OF_ASC_NODE = 228.3869
ARG_OF_PERICENTER = 216.6263
MEAN_ANOMALY   = 265.0234

EPHEMERIS_TYPE = 0
CLASSIFICATION_TYPE = U
NORAD_CAT_ID   = 21938
ELEMENT_SET_NO = 999
REV_AT_EPOCH   = 68731
BSTAR          = .54628E-4
MEAN_MOTION_DOT = .68E-6
MEAN_MOTION_DDOT = 0

CCSDS_OMM_VERS = 2.0
CREATION_DATE  = 
ORIGINATOR     = 

OBJECT_NAME    = USA 81
OBJECT_ID      = 1992-023A
CENTER_NAME    = EARTH
REF_FRAME      = TEME
TIME_SYSTEM    = UTC
MEAN_ELEMENT_THEORY = SGP/SGP4

EPOCH          = 2025-11-29T03:09:57.227040
MEAN_MOTION    = 14.32319439
ECCENTRICITY   = .0002026
INCLINATION    = 85.0091
RA_OF_ASC_NODE = 189.4234
ARG_OF_PERICENTER = 64.2447
MEAN_ANOMALY   = 295.8955

EPHEMERIS_TYPE = 0
CLASSIFICATION_TYPE = U
NORAD_CAT_ID   = 21949
ELEMENT_SET_NO = 999
REV_AT_EPOCH   = 8039
BSTAR          = .68343E-4
MEAN_MOTION_DOT = .204E-5
MEAN_MOTION_DDOT = 0

CCSDS_OMM_VERS = 2.0
CREATION_DATE  = 
ORIGINATOR     = 

OBJECT_NAME    = COSMOS 2219
OBJECT_ID      = 1992-076A
CENTER_NAME    = EARTH
REF_FRAME      = TEME
TIME_SYSTEM    = UTC
MEAN_ELEMENT_THEORY = SGP/SGP4

EPOCH          = 2025-11-29T03:25:26.256864
MEAN_MOTION    = 14.14065413
ECCENTRICITY   = .0018696
INCLINATION    = 71.0600
RA_OF_ASC_NODE = 228.2550
ARG_OF_PERICENTER = 345.7785
MEAN_ANOMALY   = 14.2808

EPHEMERIS_TYPE = 0
CLASSIFICATION_TYPE = U
NORAD_CAT_ID   = 22219
ELEMENT_SET_NO = 999
REV_AT_EPOCH   = 70416
BSTAR          = -.10638E-3
MEAN_MOTION_DOT = -.25E-5
MEAN_MOTION_DDOT = 0

CCSDS_OMM_VERS = 2.0
CREATION_DATE  = 
ORIGINATOR     = 

OBJECT_NAME    = SL-16 R/B
OBJECT_ID      = 1992-076B
CENTER_NAME    = EARTH
REF_FRAME      = TEME
TIME_SYSTEM    = UTC
MEAN_ELEMENT_THEORY = SGP/SGP4

EPOCH          = 2025-11-29T03:42:53.792064
MEAN_MOTION    = 14.16839488
ECCENTRICITY   = .001507
INCLINATION    = 71.0016
RA_OF_ASC_NODE = 40.1482
ARG_OF_PERICENTER = 251.8481
MEAN_ANOMALY   = 133.2291

EPHEMERIS_TYPE = 0
CLASSIFICATION_TYPE = U
NORAD_CAT_ID   = 22220
ELEMENT_SET_NO = 999
REV_AT_EPOCH   = 70759
BSTAR          = .14517E-3
MEAN_MOTION_DOT = .243E-5
MEAN_MOTION_DDOT = 0

CCSDS_OMM_VERS = 2.0
CREATION_DATE  = 
ORIGINATOR     = 

OBJECT_NAME    = COSMOS 2221
OBJECT_ID      = 1992-080A
CENTER_NAME    = EARTH
REF_FRAME      = TEME
TIME_SYSTEM    = UTC
MEAN_ELEMENT_THEORY = SGP/SGP4

EPOCH          = 2025-11-29T04:05:23.150112
MEAN_MOTION    = 14.95681583
ECCENTRICITY   = .0015042
INCLINATION    = 82.5057
RA_OF_ASC_NODE = 15.3126
ARG_OF_PERICENTER = 164.6060
MEAN_ANOMALY   = 195.5622

EPHEMERIS_TYPE = 0
CLASSIFICATION_TYPE = U
NORAD_CAT_ID   = 22236
ELEMENT_SET_NO = 999
REV_AT_EPOCH   = 76576
BSTAR          = .16579E-3
MEAN_MOTION_DOT = .1873E-4
MEAN_MOTION_DDOT = 0

CCSDS_OMM_VERS = 2.0
CREATION_DATE  = 
ORIGINATOR     = 

OBJECT_NAME    = SL-16 R/B
OBJECT_ID      = 1992-093B
CENTER_NAME    = EARTH
REF_FRAME      = TEME
TIME_SYSTEM    = UTC
MEAN_ELEMENT_THEORY = SGP/SGP4

EPOCH          = 2025-11-29T02:30:32.694048
MEAN_MOTION    = 14.15426561
ECCENTRICITY   = .0001953
INCLINATION    = 71.0207
RA_OF_ASC_NODE = 215.4178
ARG_OF_PERICENTER = 113.7117
MEAN_ANOMALY   = 246.4210

EPHEMERIS_TYPE = 0
CLASSIFICATION_TYPE = U
NORAD_CAT_ID   = 22285
ELEMENT_SET_NO = 999
REV_AT_EPOCH   = 69892
BSTAR          = -.99089E-4
MEAN_MOTION_DOT = -.241E-5
MEAN_MOTION_DDOT = 0

