COSMOS 2151             
1 21422U 91042A   25333.14496485  .00001921  00000+0  15371-3 0  9996
2 21422  82.4966 180.6030 0013695  43.5253 316.7049 14.99610842848129
SL-14 R/B               
1 21423U 91042B   25333.20838242  .00000514  00000+0  62199-4 0  9993
2 21423  82.4916 314.4134 0016264 206.5941 153.4441 14.81719050838197
ERS-1                   
1 21574U 91050A   25333.04238269  .00000352  00000+0  12722-3 0  9990
2 21574  98.7914 343.7545 0032698 139.5064 220.8564 14.39348143801259
ARIANE 40 R/B           
1 21610U 91050F   25333.12455346  .00000394  00000+0  13063-3 0  9992
2 21610  98.2185  24.0454 0003605  38.4473 321.6974 14.42795384804491
INTERCOSMOS 25          
1 21819U 91086A   25333.09533071  .00001795  00000+0  35462-3 0  9993
2 21819  82.6067  10.8271 1487346 333.8234  19.4420 12.11652005484504
SL-8 R/B                
1 21876U 92008B   25333.15548580  .00000148  00000+0  13591-3 0  9999
2 21876  82.9264 342.5518 0035862  56.8858  12.3749 13.75954435695595
SL-8 R/B                
1 21938U 92020B   25333.17800588  .00000068  00000+0  54628-4 0  9991
2 21938  82.9315 228.3869 0028074 216.6263 265.0234 13.75524295687318
USA 81                  
1 21949U 92023A   25333.13191235  .00000204  00000+0  68343-4 0  9995
2 21949  85.0091 189.4234 0002026  64.2447 295.8955 14.32319439 80390
COSMOS 2219             
1 22219U 92076A   25333.14266501 -.00000250  00000+0 -10638-3 0  9990
2 22219  71.0600 228.2550 0018696 345.7785  14.2808 14.14065413704165
SL-16 R/B               
1 22220U 92076B   25333.15478926  .00000243  00000+0  14517-3 0  9999
2 22220  71.0016  40.1482 0015070 251.8481 133.2291 14.16839488707597
COSMOS 2221             
1 22236U 92080A   25333.17040683  .00001873  00000+0  16579-3 0  9998
2 22236  82.5057  15.3126 0015042 164.6060 195.5622 14.95681583765768
SL-16 R/B               
1 22285U 92093B   25333.10454507 -.00000241  00000+0 -99089-4 0  9991
2 22285  71.0207 215.4178 0001953 113.7117 246.4210 14.15426561698923
